$$SOE
2460147.500000000, A.D. 2023-Jul-22 00:00:00.0000, 2.123512857888533E+08, 6.650583361802370E+07, -6.468111866388819E+07,
2460154.500000000, A.D. 2023-Jul-29 00:00:00.0000, 2.121927524967354E+08, 8.256372122933201E+07, -6.100643312849429E+07,
2460161.500000000, A.D. 2023-Aug-05 00:00:00.0000, 2.112479747340862E+08, 9.831624426100971E+07, -5.710554704209462E+07,
2460168.500000000, A.D. 2023-Aug-12 00:00:00.0000, 2.095606046697388E+08, 1.137237031043221E+08, -5.300377167172626E+07,
2460175.500000000, A.D. 2023-Aug-19 00:00:00.0000, 2.071751687587452E+08, 1.287528592385481E+08, -4.872529167413299E+07,
2460182.500000000, A.D. 2023-Aug-26 00:00:00.0000, 2.041362918370334E+08, 1.433764191310084E+08, -4.429299026737622E+07,
2460189.500000000, A.D. 2023-Sep-02 00:00:00.0000, 2.004880715810766E+08, 1.575724727901412E+08, -3.972834101063667E+07,
2460196.500000000, A.D. 2023-Sep-09 00:00:00.0000, 1.962735907303180E+08, 1.713239183953977E+08, -3.505135437530068E+07,
2460203.500000000, A.D. 2023-Sep-16 00:00:00.0000, 1.915345511512856E+08, 1.846178964317338E+08, -3.028056780622189E+07,
2460210.500000000, A.D. 2023-Sep-23 00:00:00.0000, 1.863110127497864E+08, 1.974452500797141E+08, -2.543306904935878E+07,
2460217.500000000, A.D. 2023-Sep-30 00:00:00.0000, 1.806412196496406E+08, 2.098000236707013E+08, -2.052454374933142E+07,
2460224.500000000, A.D. 2023-Oct-07 00:00:00.0000, 1.745614951433848E+08, 2.216790046695981E+08, -1.556933972956488E+07,
2460231.500000000, A.D. 2023-Oct-14 00:00:00.0000, 1.681061919890055E+08, 2.330813084315141E+08, -1.058054231910613E+07,
2460238.500000000, A.D. 2023-Oct-21 00:00:00.0000, 1.613076887232548E+08, 2.440080073837909E+08, -5.570056171131283E+06,
2460245.500000000, A.D. 2023-Oct-28 00:00:00.0000, 1.541964199102936E+08, 2.544618052475603E+08, -5.486896450602561E+05,
2460252.500000000, A.D. 2023-Nov-04 00:00:00.0000, 1.468009302644200E+08, 2.644467528371674E+08, 4.473760982171312E+06,
2460259.500000000, A.D. 2023-Nov-11 00:00:00.0000, 1.391479456948968E+08, 2.739680015311720E+08, 9.488429340617925E+06,
2460266.500000000, A.D. 2023-Nov-18 00:00:00.0000, 1.312624558085641E+08, 2.830315907431175E+08, 1.448730013503967E+07,
2460273.500000000, A.D. 2023-Nov-25 00:00:00.0000, 1.231678034710340E+08, 2.916442657483054E+08, 1.946313451443638E+07,
2460280.500000000, A.D. 2023-Dec-02 00:00:00.0000, 1.148857779894413E+08, 2.998133223035072E+08, 2.440940014189564E+07,
2460287.500000000, A.D. 2023-Dec-09 00:00:00.0000, 1.064367093594951E+08, 3.075464746724916E+08, 2.932020618501733E+07,
2460294.500000000, A.D. 2023-Dec-16 00:00:00.0000, 9.783956190705384E+07, 3.148517440239568E+08, 3.419024324007112E+07,
2460301.500000000, A.D. 2023-Dec-23 00:00:00.0000, 8.911202626336254E+07, 3.217373651471385E+08, 3.901472811901990E+07,
2460308.500000000, A.D. 2023-Dec-30 00:00:00.0000, 8.027060736141619E+07, 3.282117100863736E+08, 4.378935352284865E+07,
2460315.500000000, A.D. 2024-Jan-06 00:00:00.0000, 7.133070603772299E+07, 3.342832241562185E+08, 4.851024232565241E+07,
2460322.500000000, A.D. 2024-Jan-13 00:00:00.0000, 6.230669701559596E+07, 3.399603706274720E+08, 5.317390575246333E+07,
2460329.500000000, A.D. 2024-Jan-20 00:00:00.0000, 5.321200430005659E+07, 3.452515855168041E+08, 5.777720529557103E+07,
2460336.500000000, A.D. 2024-Jan-27 00:00:00.0000, 4.405917190292200E+07, 3.501652416873674E+08, 6.231731830629924E+07,
2460343.500000000, A.D. 2024-Feb-03 00:00:00.0000, 3.485992951429401E+07, 3.547096200641780E+08, 6.679170692613864E+07,
2460350.500000000, A.D. 2024-Feb-10 00:00:00.0000, 2.562525351647339E+07, 3.588928866039088E+08, 7.119809002183712E+07,
2460357.500000000, A.D. 2024-Feb-17 00:00:00.0000, 1.636542364955144E+07, 3.627230741117032E+08, 7.553441784154978E+07,
2460364.500000000, A.D. 2024-Feb-24 00:00:00.0000, 7.090075568853240E+06, 3.662080681375572E+08, 7.979884913664809E+07,
2460371.500000000, A.D. 2024-Mar-02 00:00:00.0000, -2.191750452148452E+06, 3.693555962525305E+08, 8.398973050907557E+07,
2460378.500000000, A.D. 2024-Mar-09 00:00:00.0000, -1.147156430059051E+07, 3.721732200738424E+08, 8.810557775036155E+07,
2460385.500000000, A.D. 2024-Mar-16 00:00:00.0000, -2.074138365322117E+07, 3.746683297536318E+08, 9.214505895467612E+07,
2460392.500000000, A.D. 2024-Mar-23 00:00:00.0000, -2.999369432590497E+07, 3.768481416326782E+08, 9.610697932682726E+07,
2460399.500000000, A.D. 2024-Mar-30 00:00:00.0000, -3.922141535533050E+07, 3.787196986866824E+08, 9.999026772568269E+07,
2460406.500000000, A.D. 2024-Apr-06 00:00:00.0000, -4.841786833731149E+07, 3.802898700984935E+08, 1.037939644944190E+08,
2460413.500000000, A.D. 2024-Apr-13 00:00:00.0000, -5.757674726813143E+07, 3.815653505427832E+08, 1.075172101864917E+08,
2460420.500000000, A.D. 2024-Apr-20 00:00:00.0000, -6.669208964658216E+07, 3.825526616556940E+08, 1.111592353752099E+08,
2460427.500000000, A.D. 2024-Apr-27 00:00:00.0000, -7.575825016842133E+07, 3.832581549520227E+08, 1.147193515319053E+08,
2460434.500000000, A.D. 2024-May-04 00:00:00.0000, -8.476987675453191E+07, 3.836880153365863E+08, 1.181969428092346E+08,
2460441.500000000, A.D. 2024-May-11 00:00:00.0000, -9.372188851649694E+07, 3.838482649831068E+08, 1.215914586119907E+08,
2460448.500000000, A.D. 2024-May-18 00:00:00.0000, -1.026094554312064E+08, 3.837447674983014E+08, 1.249024068714660E+08,
2460455.500000000, A.D. 2024-May-25 00:00:00.0000, -1.114279795643987E+08, 3.833832322775179E+08, 1.281293479505034E+08,
2460462.500000000, A.D. 2024-Jun-01 00:00:00.0000, -1.201730776583286E+08, 3.827692189225850E+08, 1.312718891063835E+08,
2460469.500000000, A.D. 2024-Jun-08 00:00:00.0000, -1.288405647219679E+08, 3.819081416393470E+08, 1.343296794309317E+08,
2460476.500000000, A.D. 2024-Jun-15 00:00:00.0000, -1.374264381181634E+08, 3.808052741109162E+08, 1.373024052254495E+08,
2460483.500000000, A.D. 2024-Jun-22 00:00:00.0000, -1.459268630551791E+08, 3.794657559823487E+08, 1.401897859538028E+08,
2460490.500000000, A.D. 2024-Jun-29 00:00:00.0000, -1.543381615121138E+08, 3.778945991031908E+08, 1.429915707780969E+08,
2460497.500000000, A.D. 2024-Jul-06 00:00:00.0000, -1.626568018686759E+08, 3.760966910250710E+08, 1.457075351923144E+08,
2460504.500000000, A.D. 2024-Jul-13 00:00:00.0000, -1.708793872182546E+08, 3.740767985531522E+08, 1.483374777713600E+08,
2460511.500000000, A.D. 2024-Jul-20 00:00:00.0000, -1.790026442844763E+08, 3.718395724847509E+08, 1.508812172833606E+08,
2460518.500000000, A.D. 2024-Jul-27 00:00:00.0000, -1.870234135351642E+08, 3.693895525639130E+08, 1.533385901216105E+08,
2460525.500000000, A.D. 2024-Aug-03 00:00:00.0000, -1.949386401634953E+08, 3.667311722681811E+08, 1.557094479777022E+08,
2460532.500000000, A.D. 2024-Aug-10 00:00:00.0000, -2.027453657173804E+08, 3.638687634173576E+08, 1.579936557196940E+08,
2460539.500000000, A.D. 2024-Aug-17 00:00:00.0000, -2.104407202802719E+08, 3.608065606221917E+08, 1.601910894536207E+08,
2460546.500000000, A.D. 2024-Aug-24 00:00:00.0000, -2.180219151300326E+08, 3.575487055481974E+08, 1.623016347461364E+08,
2460553.500000000, A.D. 2024-Aug-31 00:00:00.0000, -2.254862357186481E+08, 3.540992509316929E+08, 1.643251849762403E+08,
2460560.500000000, A.D. 2024-Sep-07 00:00:00.0000, -2.328310345694312E+08, 3.504621644740733E+08, 1.662616397779756E+08,
2460567.500000000, A.D. 2024-Sep-14 00:00:00.0000, -2.400537239723434E+08, 3.466413336110675E+08, 1.681109036344908E+08,
2460574.500000000, A.D. 2024-Sep-21 00:00:00.0000, -2.471517704753769E+08, 3.426405715725445E+08, 1.698728848322176E+08,
2460581.500000000, A.D. 2024-Sep-28 00:00:00.0000, -2.541226916292455E+08, 3.384636215093163E+08, 1.715474945457668E+08,
2460588.500000000, A.D. 2024-Oct-05 00:00:00.0000, -2.609640512871264E+08, 3.341141586903073E+08, 1.731346457059315E+08,
2460595.500000000, A.D. 2024-Oct-12 00:00:00.0000, -2.676734537969771E+08, 3.295957937530847E+08, 1.746342519188173E+08,
2460602.500000000, A.D. 2024-Oct-19 00:00:00.0000, -2.742485388157462E+08, 3.249120767432356E+08, 1.760462265682431E+08,
2460609.500000000, A.D. 2024-Oct-26 00:00:00.0000, -2.806869767562014E+08, 3.200665011472726E+08, 1.773704820322970E+08,
2460616.500000000, A.D. 2024-Nov-02 00:00:00.0000, -2.869864645890689E+08, 3.150625077762034E+08, 1.786069289719666E+08,
2460623.500000000, A.D. 2024-Nov-09 00:00:00.0000, -2.931447218857407E+08, 3.099034885263538E+08, 1.797554756791261E+08,
2460630.500000000, A.D. 2024-Nov-16 00:00:00.0000, -2.991594870589402E+08, 3.045927900240652E+08, 1.808160274766980E+08,
2460637.500000000, A.D. 2024-Nov-23 00:00:00.0000, -3.050285137389142E+08, 2.991337171110588E+08, 1.817884861583408E+08,
2460644.500000000, A.D. 2024-Nov-30 00:00:00.0000, -3.107495670624540E+08, 2.935295361347035E+08, 1.826727494412671E+08,
2460651.500000000, A.D. 2024-Dec-07 00:00:00.0000, -3.163204194420183E+08, 2.877834784707456E+08, 1.834687104247074E+08,
2460658.500000000, A.D. 2024-Dec-14 00:00:00.0000, -3.217388464918290E+08, 2.818987455096290E+08, 1.841762572145508E+08,
2460665.500000000, A.D. 2024-Dec-21 00:00:00.0000, -3.270026254190901E+08, 2.758785138741023E+08, 1.847952728239730E+08,
2460672.500000000, A.D. 2024-Dec-28 00:00:00.0000, -3.321095338963367E+08, 2.697259379097642E+08, 1.853256349247656E+08,
2460679.500000000, A.D. 2025-Jan-04 00:00:00.0000, -3.370573468063063E+08, 2.634441518314309E+08, 1.857672154022496E+08,
2460686.500000000, A.D. 2025-Jan-11 00:00:00.0000, -3.418438326726909E+08, 2.570362731923674E+08, 1.861198800153301E+08,
2460693.500000000, A.D. 2025-Jan-18 00:00:00.0000, -3.464667506863548E+08, 2.505054067672335E+08, 1.863834881709591E+08,
2460700.500000000, A.D. 2025-Jan-25 00:00:00.0000, -3.509238480753909E+08, 2.438546483840602E+08, 1.865578927516397E+08,
2460707.500000000, A.D. 2025-Feb-01 00:00:00.0000, -3.552128576217926E+08, 2.370870886847365E+08, 1.866429399757445E+08,
2460714.500000000, A.D. 2025-Feb-08 00:00:00.0000, -3.593314952593091E+08, 2.302058168436445E+08, 1.866384692867806E+08,
$$EOE